{"epoch":1784902576,"count":18312,"objects":[{"id":"44057","name":"ONEWEB-0012","type":"PAYLOAD","l1":"1 44057U 19010A   26205.11168731  .00000080  00000-0  17485-3 0  9990","l2":"2 44057  87.9076 221.4500 0001644  99.1076 261.0241 13.16594557356422"},{"id":"44058","name":"ONEWEB-0010","type":"PAYLOAD","l1":"1 44058U 19010B   26205.28903363  .00000109  00000-0  25080-3 0  9999","l2":"2 44058  87.9078 221.4107 0002372  96.0438 264.0964 13.16594685356499"},{"id":"44059","name":"ONEWEB-0008","type":"PAYLOAD","l1":"1 44059U 19010C   26205.08635140  .00001611  00000-0  41795-2 0  9992","l2":"2 44059  87.9098 221.4467 0002131  38.8252 321.3031 13.16609823356585"},{"id":"44060","name":"ONEWEB-0007","type":"PAYLOAD","l1":"1 44060U 19010D   26205.15079581 -.00000075  00000-0 -23423-3 0  9997","l2":"2 44060  87.8973 251.8549 0002079 104.5760 255.5601 13.15548775356232"},{"id":"44061","name":"ONEWEB-0006","type":"PAYLOAD","l1":"1 44061U 19010E   26205.15473585 -.00000089  00000-0 -27105-3 0  9996","l2":"2 44061  87.8984 251.8222 0002215  94.0241 266.1142 13.15546964356283"},{"id":"44062","name":"ONEWEB-0011","type":"PAYLOAD","l1":"1 44062U 19010F   26205.19910991  .00000120  00000-0  28379-3 0  9996","l2":"2 44062  87.8985 251.8236 0002859 105.5728 254.5718 13.15547630356283"},{"id":"45131","name":"ONEWEB-0013","type":"PAYLOAD","l1":"1 45131U 20008A   26205.07646240  .00000586  00000-0  16633-2 0  9998","l2":"2 45131  87.8495  45.3758 0000813  89.8060 270.3160 13.09462764310894"},{"id":"45132","name":"ONEWEB-0017","type":"PAYLOAD","l1":"1 45132U 20008B   26205.26221952  .00000622  00000-0  17445-2 0  9992","l2":"2 45132  87.8820  28.8786 0001998  90.6671 269.4685 13.10377847312800"},{"id":"45133","name":"ONEWEB-0020","type":"PAYLOAD","l1":"1 45133U 20008C   26205.23166068 -.00000626  00000-0 -18288-2 0  9998","l2":"2 45133  87.8826  28.8850 0001771  89.0408 271.0922 13.10372617313194"},{"id":"45134","name":"ONEWEB-0021","type":"PAYLOAD","l1":"1 45134U 20008D   26205.01786291 -.00000060  00000-0 -20838-3 0  9998","l2":"2 45134  87.8820  28.9415 0001805  91.4679 268.6655 13.10375860313471"},{"id":"45136","name":"ONEWEB-0023","type":"PAYLOAD","l1":"1 45136U 20008F   26205.02891088  .00000462  00000-0  12859-2 0  9999","l2":"2 45136  87.8829  28.9234 0001715  83.6765 276.4557 13.10374654312905"},{"id":"45137","name":"ONEWEB-0024","type":"PAYLOAD","l1":"1 45137U 20008G   26205.23009503 -.00000536  00000-0 -15713-2 0  9992","l2":"2 45137  87.8830  28.8777 0001821  91.1526 268.9810 13.10372518313092"},{"id":"45138","name":"ONEWEB-0025","type":"PAYLOAD","l1":"1 45138U 20008H   26205.07710526 -.00000612  00000-0 -17882-2 0  9993","l2":"2 45138  87.8831  28.8980 0002034  77.4390 282.6965 13.10371971313404"},{"id":"45139","name":"ONEWEB-0026","type":"PAYLOAD","l1":"1 45139U 20008J   26205.00998798  .00000352  00000-0  95679-3 0  9996","l2":"2 45139  87.8891  13.7354 0001772  92.7315 267.4016 13.11377324315931"},{"id":"45140","name":"ONEWEB-0028","type":"PAYLOAD","l1":"1 45140U 20008K   26204.98502984  .00000319  00000-0  86219-3 0  9995","l2":"2 45140  87.8885  13.7471 0001234  95.8473 264.2796 13.11562377313446"},{"id":"45141","name":"ONEWEB-0032","type":"PAYLOAD","l1":"1 45141U 20008L   26205.26406641  .00000631  00000-0  17698-2 0  9992","l2":"2 45141  87.8822  28.8803 0001308  84.6461 275.4816 13.10374950313151"},{"id":"45142","name":"ONEWEB-0033","type":"PAYLOAD","l1":"1 45142U 20008M   26204.93301949 -.00000484  00000-0 -14221-2 0  9998","l2":"2 45142  87.8820  28.9528 0002294  92.6047 267.5343 13.10374360313027"},{"id":"45143","name":"ONEWEB-0035","type":"PAYLOAD","l1":"1 45143U 20008N   26205.02987490  .00000303  00000-0  83253-3 0  9991","l2":"2 45143  87.8819  28.9264 0001818  91.3629 268.7707 13.10377426312769"},{"id":"45144","name":"ONEWEB-0036","type":"PAYLOAD","l1":"1 45144U 20008P   26205.00755520 -.00000542  00000-0 -15886-2 0  9990","l2":"2 45144  87.8842  28.9495 0001592  86.9589 273.1720 13.10376227313186"},{"id":"45145","name":"ONEWEB-0038","type":"PAYLOAD","l1":"1 45145U 20008Q   26205.02021654 -.00000124  00000-0 -38494-3 0  9994","l2":"2 45145  87.8908  13.7477 0002543 134.1348 225.9989 13.11415566315150"},{"id":"45146","name":"ONEWEB-0039","type":"PAYLOAD","l1":"1 45146U 20008R   26205.24184633 -.00000376  00000-0 -11122-2 0  9993","l2":"2 45146  87.8825  28.8819 0001303  93.6555 266.4722 13.10375151313010"},{"id":"45147","name":"ONEWEB-0040","type":"PAYLOAD","l1":"1 45147U 20008S   26205.23504845 -.00000599  00000-0 -17526-2 0  9995","l2":"2 45147  87.8816  28.8936 0001727  79.6432 280.4890 13.10372998312713"},{"id":"45149","name":"ONEWEB-0043","type":"PAYLOAD","l1":"1 45149U 20008U   26205.00780552 -.00000540  00000-0 -15840-2 0  9996","l2":"2 45149  87.8848  28.9292 0001212  94.0829 266.0436 13.10373930313002"},{"id":"45150","name":"ONEWEB-0044","type":"PAYLOAD","l1":"1 45150U 20008V   26205.03654215  .00000679  00000-0  19087-2 0  9995","l2":"2 45150  87.8819  28.9264 0001864  80.2618 279.8720 13.10376531313308"},{"id":"45151","name":"ONEWEB-0045","type":"PAYLOAD","l1":"1 45151U 20008W   26204.93869589  .00000123  00000-0  31103-3 0  9994","l2":"2 45151  87.8897  13.7441 0001701  95.1079 265.0243 13.11415328315229"},{"id":"45152","name":"ONEWEB-0047","type":"PAYLOAD","l1":"1 45152U 20008X   26205.02961832  .00000483  00000-0  13461-2 0  9995","l2":"2 45152  87.8830  28.9253 0001964  93.9745 266.1606 13.10375080313023"},{"id":"45153","name":"ONEWEB-0048","type":"PAYLOAD","l1":"1 45153U 20008Y   26205.02466529  .00000254  00000-0  69186-3 0  9991","l2":"2 45153  87.8814  28.9444 0001793  94.1175 266.0157 13.10376857312637"},{"id":"45154","name":"ONEWEB-0049","type":"PAYLOAD","l1":"1 45154U 20008Z   26204.95155517  .00000440  00000-0  12237-2 0  9996","l2":"2 45154  87.8822  28.9478 0001685  75.6533 284.4781 13.10375250312842"},{"id":"45155","name":"ONEWEB-0051","type":"PAYLOAD","l1":"1 45155U 20008AA  26205.01329368  .00000184  00000-0  48197-3 0  9992","l2":"2 45155  87.8896  13.7341 0001881  89.3747 270.7596 13.11416191315916"},{"id":"45156","name":"ONEWEB-0052","type":"PAYLOAD","l1":"1 45156U 20008AB  26205.04856103  .00000539  00000-0  15078-2 0  9993","l2":"2 45156  87.8825  28.9160 0001563  84.9555 275.1750 13.10371989312766"}]}